NORAD_CAT_ID,OBJECT_NAME,OBJECT_TYPE,EPOCH,MEAN_MOTION,ECCENTRICITY,INCLINATION,RA_OF_ASC_NODE,ARG_OF_PERICENTER,MEAN_ANOMALY,BSTAR,MEAN_MOTION_DOT,MEAN_MOTION_DDOT,TLE_LINE0,TLE_LINE1,TLE_LINE2,SEMIMAJOR_AXIS,PERIOD,APOGEE,PERIGEE,DECAYED
54160.0,STARLINK-5233,PAYLOAD,2023-04-18 04:36:26,15.08842284,0.0001442,53.2204,31.8853,76.2789,283.8363,4.3685e-05,4.07e-06,0.0,0 STARLINK-5233,1 54160U 22141D   23108.19197694  .00000407  00000-0  43685-4 0  9997,2 54160  53.2204  31.8853 0001442  76.2789 283.8363 15.08842284 26858,6917.873,95.437,540.736,538.741,0.0
54160.0,STARLINK-5233,PAYLOAD,2023-04-19 04:27:14,15.08843268,0.0001262,53.2205,27.423,90.9746,269.139,-7.2013e-05,-1.434e-05,0.0,0 STARLINK-5233,1 54160U 22141D   23109.18558156 -.00001434  00000-0 -72013-4 0  9991,2 54160  53.2205  27.4230 0001262  90.9746 269.1390 15.08843268 27003,6917.87,95.437,540.608,538.862,0.0
54160.0,STARLINK-5233,PAYLOAD,2023-04-20 02:42:38,15.08846404,0.0001086,53.2214,23.2642,81.4762,278.6354,-0.00024616,-4.204e-05,0.0,0 STARLINK-5233,1 54160U 22141D   23110.11294992 -.00004204  00000-0 -24616-3 0  9994,2 54160  53.2214  23.2642 0001086  81.4762 278.6354 15.08846404 27146,6917.861,95.437,540.477,538.975,0.0
54160.0,STARLINK-5233,PAYLOAD,2023-04-21 10:30:21,15.08840917,9.82e-05,53.2198,17.3153,86.8336,273.2769,-2.9535e-06,-3.35e-06,0.0,0 STARLINK-5233,1 54160U 22141D   23111.43774902 -.00000335  00000-0 -29535-5 0  9992,2 54160  53.2198  17.3153 0000982  86.8336 273.2769 15.08840917 27344,6917.878,95.437,540.422,539.063,0.0
54160.0,STARLINK-5233,PAYLOAD,2023-04-21 18:27:17,15.08841561,9.97e-05,53.2192,15.8285,77.7273,282.3831,4.732e-05,4.65e-06,0.0,0 STARLINK-5233,1 54160U 22141D   23111.76895021  .00000465  00000-0  47320-4 0  9997,2 54160  53.2192  15.8285 0000997  77.7273 282.3831 15.08841561 27394,6917.876,95.437,540.43,539.051,0.0
54160.0,STARLINK-5233,PAYLOAD,2023-04-22 00:48:48,15.08852666,9.69e-05,53.2201,14.6394,77.1516,282.9584,0.00014172,1.969e-05,0.0,0 STARLINK-5233,1 54160U 22141D   23112.03389849  .00001969  00000-0  14172-3 0  9992,2 54160  53.2201  14.6394 0000969  77.1516 282.9584 15.08852666 27430,6917.842,95.437,540.377,539.036,0.0
54160.0,STARLINK-5233,PAYLOAD,2023-04-22 02:24:11,15.08855414,0.0001017,53.2195,14.3421,81.3738,278.737,0.00013177,1.811e-05,0.0,0 STARLINK-5233,1 54160U 22141D   23112.10013614  .00001811  00000-0  13177-3 0  9994,2 54160  53.2195  14.3421 0001017  81.3738 278.7370 15.08855414 27449,6917.833,95.437,540.402,538.995,0.0
54160.0,STARLINK-5233,PAYLOAD,2023-04-22 16:42:40,15.08840203,0.0001109,53.2192,11.6656,81.4911,278.6207,8.3107e-05,1.035e-05,0.0,0 STARLINK-5233,1 54160U 22141D   23112.69630616  .00001035  00000-0  83107-4 0  9994,2 54160  53.2192  11.6656 0001109  81.4911 278.6207 15.08840203 27530,6917.88,95.438,540.512,538.978,0.0
54160.0,STARLINK-5233,PAYLOAD,2023-04-23 00:39:36,15.08845631,9.67e-05,53.2194,10.1788,74.1295,285.9804,1.2826e-05,-8.4e-07,0.0,0 STARLINK-5233,1 54160U 22141D   23113.02750484 -.00000084  00000-0  12826-4 0  9992,2 54160  53.2194  10.1788 0000967  74.1295 285.9804 15.08845631 27586,6917.863,95.437,540.397,539.059,0.0
54160.0,STARLINK-5233,PAYLOAD,2023-04-23 16:33:28,15.08838173,0.0001004,53.2192,7.2055,72.2819,287.8282,-4.8959e-05,-1.067e-05,0.0,0 STARLINK-5233,1 54160U 22141D   23113.68991038 -.00001067  00000-0 -48959-4 0  9995,2 54160  53.2192   7.2055 0001004  72.2819 287.8282 15.08838173 27687,6917.886,95.438,540.446,539.056,0.0
54160.0,STARLINK-5233,PAYLOAD,2023-04-24 02:05:46,15.08847679,0.000142,53.2197,5.4249,15.0077,345.0957,5.3887e-05,5.7e-06,0.0,0 STARLINK-5233,1 54160U 22141D   23114.08734059  .00000570  00000-0  53887-4 0  9990,2 54160  53.2197   5.4249 0001420  15.0077 345.0957 15.08847679 27744,6917.857,95.437,540.704,538.74,0.0
54160.0,STARLINK-5233,PAYLOAD,2023-04-24 22:45:44,15.08865032,0.000113,53.2199,1.5551,79.1465,280.9655,0.00014701,2.054e-05,0.0,0 STARLINK-5233,1 54160U 22141D   23114.94843282  .00002054  00000-0  14701-3 0  9994,2 54160  53.2199   1.5551 0001130  79.1465 280.9655 15.08865032 27878,6917.804,95.436,540.451,538.887,0.0
54160.0,STARLINK-5233,PAYLOAD,2023-04-25 22:36:35,15.08821374,0.0001419,53.22,357.1007,73.5355,286.5793,-0.00022514,-3.867e-05,0.0,0 STARLINK-5233,1 54160U 22141D   23115.94207487 -.00003867  00000-0 -22514-3 0  9992,2 54160  53.2200 357.1007 0001419  73.5355 286.5793 15.08821374 28027,6917.937,95.439,540.784,538.821,0.0
54160.0,STARLINK-5233,PAYLOAD,2023-04-26 22:27:22,15.08814056,0.0001145,53.2181,352.6374,86.5635,273.5489,-1.0667e-05,-4.57e-06,0.0,0 STARLINK-5233,1 54160U 22141D   23116.93567455 -.00000457  00000-0 -10667-4 0  9995,2 54160  53.2181 352.6374 0001145  86.5635 273.5489 15.08814056 28176,6917.96,95.439,540.617,539.033,0.0
54160.0,STARLINK-5233,PAYLOAD,2023-04-27 20:42:45,15.088216,9.31e-05,53.2199,348.4764,84.6918,275.4181,0.00019627,2.836e-05,0.0,0 STARLINK-5233,1 54160U 22141D   23117.86303237  .00002836  00000-0  19627-3 0  9999,2 54160  53.2199 348.4764 0000931  84.6918 275.4181 15.08821600 28315,6917.937,95.439,540.446,539.158,0.0
54160.0,STARLINK-5233,PAYLOAD,2023-04-28 07:50:27,15.08830139,0.0001118,53.2185,346.3934,95.5852,264.5268,0.00014391,2.003e-05,0.0,0 STARLINK-5233,1 54160U 22141D   23118.32671168  .00002003  00000-0  14391-3 0  9991,2 54160  53.2185 346.3934 0001118  95.5852 264.5268 15.08830139 28381,6917.911,95.438,540.549,539.002,0.0
54160.0,STARLINK-5233,PAYLOAD,2023-04-28 22:08:56,15.08835966,0.000159,53.2201,343.7209,110.4636,249.6527,-5.6088e-05,-1.18e-05,0.0,0 STARLINK-5233,1 54160U 22141D   23118.92288101 -.00001180  00000-0 -56088-4 0  9995,2 54160  53.2201 343.7209 0001590 110.4636 249.6527 15.08835966 28472,6917.893,95.438,540.858,538.658,0.0
54160.0,STARLINK-5233,PAYLOAD,2023-04-29 17:13:34,15.08842286,0.0001296,53.2166,340.1492,125.2425,234.8689,-1.4464e-06,-3.11e-06,0.0,0 STARLINK-5233,1 54160U 22141D   23119.71775467 -.00000311  00000-0 -14464-5 0  9997,2 54160  53.2166 340.1492 0001296 125.2425 234.8689 15.08842286 28591,6917.873,95.437,540.635,538.842,0.0
54160.0,STARLINK-5233,PAYLOAD,2023-04-29 21:59:43,15.08848337,0.0001146,53.2183,339.2554,90.7352,269.3771,2.9812e-05,1.87e-06,0.0,0 STARLINK-5233,1 54160U 22141D   23119.91647064  .00000187  00000-0  29812-4 0  9991,2 54160  53.2183 339.2554 0001146  90.7352 269.3771 15.08848337 28629,6917.855,95.437,540.513,538.927,0.0
54160.0,STARLINK-5233,PAYLOAD,2023-04-30 18:39:44,15.08820238,0.0001007,53.2166,335.3901,155.9229,204.1811,0.0001879,2.702e-05,0.0,0 STARLINK-5233,1 54160U 22141D   23120.77759884  .00002702  00000-0  18790-3 0  9998,2 54160  53.2166 335.3901 0001007 155.9229 204.1811 15.08820238 28752,6917.941,95.439,540.502,539.109,0.0
54160.0,STARLINK-5233,PAYLOAD,2023-04-30 23:25:53,15.08839836,0.00011,53.2186,334.4968,87.4045,272.7073,2.6839e-05,1.39e-06,0.0,0 STARLINK-5233,1 54160U 22141D   23120.97631606  .00000139  00000-0  26839-4 0  9997,2 54160  53.2186 334.4968 0001100  87.4045 272.7073 15.08839836 28784,6917.881,95.438,540.507,538.985,0.0
54160.0,STARLINK-5233,PAYLOAD,2023-05-01 13:44:22,15.08839446,0.0001053,53.2188,331.8199,85.102,275.0092,-8.9147e-05,-1.706e-05,0.0,0 STARLINK-5233,1 54160U 22141D   23121.57248214 -.00001706  00000-0 -89147-4 0  9997,2 54160  53.2188 331.8199 0001053  85.1020 275.0092 15.08839446 28872,6917.882,95.438,540.476,539.019,0.0
54160.0,STARLINK-5233,PAYLOAD,2023-05-01 21:41:17,15.08843592,0.0001033,53.2188,330.3338,83.2387,276.8723,-4.6994e-05,-1.036e-05,0.0,0 STARLINK-5233,1 54160U 22141D   23121.90367767 -.00001036  00000-0 -46994-4 0  9998,2 54160  53.2188 330.3338 0001033  83.2387 276.8723 15.08843592 28927,6917.869,95.437,540.449,539.02,0.0
54160.0,STARLINK-5233,PAYLOAD,2023-05-02 19:56:41,15.0884252,0.000106,53.2184,326.1718,79.7645,280.3466,4.4386e-05,4.19e-06,0.0,0 STARLINK-5233,1 54160U 22141D   23122.83103395  .00000419  00000-0  44386-4 0  9991,2 54160  53.2184 326.1718 0001060  79.7645 280.3466 15.08842520 29065,6917.873,95.437,540.471,539.004,0.0
54160.0,STARLINK-5233,PAYLOAD,2023-05-02 23:07:27,15.08846401,0.0001086,53.2194,325.5741,84.3004,275.8112,6.7177e-05,7.82e-06,0.0,0 STARLINK-5233,1 54160U 22141D   23122.96351000  .00000782  00000-0  67177-4 0  9999,2 54160  53.2194 325.5741 0001086  84.3004 275.8112 15.08846401 29085,6917.861,95.437,540.477,538.975,0.0
54160.0,STARLINK-5233,PAYLOAD,2023-05-03 07:04:23,15.08841629,0.0001063,53.2197,324.0859,94.928,265.1834,3.3472e-05,2.45e-06,0.0,0 STARLINK-5233,1 54160U 22141D   23123.29471264  .00000245  00000-0  33472-4 0  9996,2 54160  53.2197 324.0859 0001063  94.9280 265.1834 15.08841629 29136,6917.875,95.437,540.476,539.005,0.0
54160.0,STARLINK-5233,PAYLOAD,2023-05-03 19:47:28,15.08839235,0.0001193,53.2194,321.7056,123.7337,236.3769,5.9326e-06,-1.93e-06,0.0,0 STARLINK-5233,1 54160U 22141D   23123.82463460 -.00000193  00000-0  59326-5 0  9994,2 54160  53.2194 321.7056 0001193 123.7337 236.3769 15.08839235 29210,6917.883,95.438,540.573,538.922,0.0
54160.0,STARLINK-5233,PAYLOAD,2023-05-04 13:16:43,15.08840646,0.0001187,53.2185,318.4372,128.873,231.2369,-9.3506e-05,-1.776e-05,0.0,0 STARLINK-5233,1 54160U 22141D   23124.55327827 -.00001776  00000-0 -93506-4 0  9997,2 54160  53.2185 318.4372 0001187 128.8730 231.2369 15.08840646 29320,6917.878,95.438,540.565,538.922,0.0
54160.0,STARLINK-5233,PAYLOAD,2023-05-04 19:38:15,15.08846109,9.81e-05,53.2184,317.2515,74.641,285.469,-6.43e-05,-1.311e-05,0.0,0 STARLINK-5233,1 54160U 22141D   23124.81823534 -.00001311  00000-0 -64300-4 0  9997,2 54160  53.2184 317.2515 0000981  74.6410 285.4690 15.08846109 29361,6917.862,95.437,540.405,539.048,0.0
54160.0,STARLINK-5233,PAYLOAD,2023-05-05 19:29:02,15.08835955,9.57e-05,53.218,312.7911,79.1418,280.9682,3.4768e-05,2.66e-06,0.0,0 STARLINK-5233,1 54160U 22141D   23125.81183911  .00000266  00000-0  34768-4 0  9997,2 54160  53.2180 312.7911 0000957  79.1418 280.9682 15.08835955 29513,6917.893,95.438,540.42,539.096,0.0
